<?xml version="1.0" encoding="UTF-8"?>
<ndm xmlns:xsi="http://www.w3.org/2001/XMLSchema-instance" xsi:noNamespaceSchemaLocation="https://sanaregistry.org/r/ndmxml_unqualified/ndmxml-2.0.0-master-2.0.xsd">
<omm id="CCSDS_OMM_VERS" version="2.0">
<header><CREATION_DATE/><ORIGINATOR/></header><body><segment><metadata><OBJECT_NAME>ONEWEB-0224</OBJECT_NAME><OBJECT_ID>2021-045AD</OBJECT_ID><CENTER_NAME>EARTH</CENTER_NAME><REF_FRAME>TEME</REF_FRAME><TIME_SYSTEM>UTC</TIME_SYSTEM><MEAN_ELEMENT_THEORY>SGP4</MEAN_ELEMENT_THEORY></metadata><data><meanElements><EPOCH>2024-08-09T13:26:52.066176</EPOCH><MEAN_MOTION>13.15548255</MEAN_MOTION><ECCENTRICITY>.0001417</ECCENTRICITY><INCLINATION>87.9036</INCLINATION><RA_OF_ASC_NODE>33.8689</RA_OF_ASC_NODE><ARG_OF_PERICENTER>128.6053</ARG_OF_PERICENTER><MEAN_ANOMALY>231.5204</MEAN_ANOMALY></meanElements><tleParameters><EPHEMERIS_TYPE>0</EPHEMERIS_TYPE><CLASSIFICATION_TYPE>U</CLASSIFICATION_TYPE><NORAD_CAT_ID>48794</NORAD_CAT_ID><ELEMENT_SET_NO>999</ELEMENT_SET_NO><REV_AT_EPOCH>15531</REV_AT_EPOCH><BSTAR>-.25445E-3</BSTAR><MEAN_MOTION_DOT>-.83E-6</MEAN_MOTION_DOT><MEAN_MOTION_DDOT>0</MEAN_MOTION_DDOT></tleParameters></data></segment></body></omm>
<omm id="CCSDS_OMM_VERS" version="2.0">
<header><CREATION_DATE/><ORIGINATOR/></header><body><segment><metadata><OBJECT_NAME>ONEWEB-0233</OBJECT_NAME><OBJECT_ID>2021-045AE</OBJECT_ID><CENTER_NAME>EARTH</CENTER_NAME><REF_FRAME>TEME</REF_FRAME><TIME_SYSTEM>UTC</TIME_SYSTEM><MEAN_ELEMENT_THEORY>SGP4</MEAN_ELEMENT_THEORY></metadata><data><meanElements><EPOCH>2024-08-09T11:45:19.078560</EPOCH><MEAN_MOTION>13.15546089</MEAN_MOTION><ECCENTRICITY>.000147</ECCENTRICITY><INCLINATION>87.9034</INCLINATION><RA_OF_ASC_NODE>33.8974</RA_OF_ASC_NODE><ARG_OF_PERICENTER>93.9224</ARG_OF_PERICENTER><MEAN_ANOMALY>266.2074</MEAN_ANOMALY></meanElements><tleParameters><EPHEMERIS_TYPE>0</EPHEMERIS_TYPE><CLASSIFICATION_TYPE>U</CLASSIFICATION_TYPE><NORAD_CAT_ID>48795</NORAD_CAT_ID><ELEMENT_SET_NO>999</ELEMENT_SET_NO><REV_AT_EPOCH>15532</REV_AT_EPOCH><BSTAR>-.7296E-5</BSTAR><MEAN_MOTION_DOT>.1E-6</MEAN_MOTION_DOT><MEAN_MOTION_DDOT>0</MEAN_MOTION_DDOT></tleParameters></data></segment></body></omm>
<omm id="CCSDS_OMM_VERS" version="2.0">
<header><CREATION_DATE/><ORIGINATOR/></header><body><segment><metadata><OBJECT_NAME>ONEWEB-0190</OBJECT_NAME><OBJECT_ID>2021-045AF</OBJECT_ID><CENTER_NAME>EARTH</CENTER_NAME><REF_FRAME>TEME</REF_FRAME><TIME_SYSTEM>UTC</TIME_SYSTEM><MEAN_ELEMENT_THEORY>SGP4</MEAN_ELEMENT_THEORY></metadata><data><meanElements><EPOCH>2024-08-09T13:15:27.652896</EPOCH><MEAN_MOTION>13.15547389</MEAN_MOTION><ECCENTRICITY>.0000878</ECCENTRICITY><INCLINATION>87.9034</INCLINATION><RA_OF_ASC_NODE>33.8447</RA_OF_ASC_NODE><ARG_OF_PERICENTER>67.5995</ARG_OF_PERICENTER><MEAN_ANOMALY>292.5228</MEAN_ANOMALY></meanElements><tleParameters><EPHEMERIS_TYPE>0</EPHEMERIS_TYPE><CLASSIFICATION_TYPE>U</CLASSIFICATION_TYPE><NORAD_CAT_ID>48796</NORAD_CAT_ID><ELEMENT_SET_NO>999</ELEMENT_SET_NO><REV_AT_EPOCH>15540</REV_AT_EPOCH><BSTAR>.61556E-3</BSTAR><MEAN_MOTION_DOT>.245E-5</MEAN_MOTION_DOT><MEAN_MOTION_DDOT>0</MEAN_MOTION_DDOT></tleParameters></data></segment></body></omm>
<omm id="CCSDS_OMM_VERS" version="2.0">
<header><CREATION_DATE/><ORIGINATOR/></header><body><segment><metadata><OBJECT_NAME>ONEWEB-0236</OBJECT_NAME><OBJECT_ID>2021-045AG</OBJECT_ID><CENTER_NAME>EARTH</CENTER_NAME><REF_FRAME>TEME</REF_FRAME><TIME_SYSTEM>UTC</TIME_SYSTEM><MEAN_ELEMENT_THEORY>SGP4</MEAN_ELEMENT_THEORY></metadata><data><meanElements><EPOCH>2024-08-09T11:51:02.113344</EPOCH><MEAN_MOTION>13.15547317</MEAN_MOTION><ECCENTRICITY>.0001627</ECCENTRICITY><INCLINATION>87.9039</INCLINATION><RA_OF_ASC_NODE>33.8523</RA_OF_ASC_NODE><ARG_OF_PERICENTER>93.2810</ARG_OF_PERICENTER><MEAN_ANOMALY>266.8506</MEAN_ANOMALY></meanElements><tleParameters><EPHEMERIS_TYPE>0</EPHEMERIS_TYPE><CLASSIFICATION_TYPE>U</CLASSIFICATION_TYPE><NORAD_CAT_ID>48797</NORAD_CAT_ID><ELEMENT_SET_NO>999</ELEMENT_SET_NO><REV_AT_EPOCH>15528</REV_AT_EPOCH><BSTAR>-.63647E-3</BSTAR><MEAN_MOTION_DOT>-.227E-5</MEAN_MOTION_DOT><MEAN_MOTION_DDOT>0</MEAN_MOTION_DDOT></tleParameters></data></segment></body></omm>
<omm id="CCSDS_OMM_VERS" version="2.0">
<header><CREATION_DATE/><ORIGINATOR/></header><body><segment><metadata><OBJECT_NAME>ONEWEB-0248</OBJECT_NAME><OBJECT_ID>2021-045AH</OBJECT_ID><CENTER_NAME>EARTH</CENTER_NAME><REF_FRAME>TEME</REF_FRAME><TIME_SYSTEM>UTC</TIME_SYSTEM><MEAN_ELEMENT_THEORY>SGP4</MEAN_ELEMENT_THEORY></metadata><data><meanElements><EPOCH>2024-08-09T12:09:18.574272</EPOCH><MEAN_MOTION>13.15545390</MEAN_MOTION><ECCENTRICITY>.0000812</ECCENTRICITY><INCLINATION>87.9027</INCLINATION><RA_OF_ASC_NODE>33.8346</RA_OF_ASC_NODE><ARG_OF_PERICENTER>111.1191</ARG_OF_PERICENTER><MEAN_ANOMALY>249.0027</MEAN_ANOMALY></meanElements><tleParameters><EPHEMERIS_TYPE>0</EPHEMERIS_TYPE><CLASSIFICATION_TYPE>U</CLASSIFICATION_TYPE><NORAD_CAT_ID>48798</NORAD_CAT_ID><ELEMENT_SET_NO>999</ELEMENT_SET_NO><REV_AT_EPOCH>15544</REV_AT_EPOCH><BSTAR>.85253E-7</BSTAR><MEAN_MOTION_DOT>.13E-6</MEAN_MOTION_DOT><MEAN_MOTION_DDOT>0</MEAN_MOTION_DDOT></tleParameters></data></segment></body></omm>
<omm id="CCSDS_OMM_VERS" version="2.0">
<header><CREATION_DATE/><ORIGINATOR/></header><body><segment><metadata><OBJECT_NAME>ONEWEB-0225</OBJECT_NAME><OBJECT_ID>2021-045AJ</OBJECT_ID><CENTER_NAME>EARTH</CENTER_NAME><REF_FRAME>TEME</REF_FRAME><TIME_SYSTEM>UTC</TIME_SYSTEM><MEAN_ELEMENT_THEORY>SGP4</MEAN_ELEMENT_THEORY></metadata><data><meanElements><EPOCH>2024-08-09T12:41:14.007840</EPOCH><MEAN_MOTION>13.15548132</MEAN_MOTION><ECCENTRICITY>.0001305</ECCENTRICITY><INCLINATION>87.9033</INCLINATION><RA_OF_ASC_NODE>33.8461</RA_OF_ASC_NODE><ARG_OF_PERICENTER>89.3673</ARG_OF_PERICENTER><MEAN_ANOMALY>270.7607</MEAN_ANOMALY></meanElements><tleParameters><EPHEMERIS_TYPE>0</EPHEMERIS_TYPE><CLASSIFICATION_TYPE>U</CLASSIFICATION_TYPE><NORAD_CAT_ID>48799</NORAD_CAT_ID><ELEMENT_SET_NO>999</ELEMENT_SET_NO><REV_AT_EPOCH>15545</REV_AT_EPOCH><BSTAR>-.47502E-3</BSTAR><MEAN_MOTION_DOT>-.166E-5</MEAN_MOTION_DOT><MEAN_MOTION_DDOT>0</MEAN_MOTION_DDOT></tleParameters></data></segment></body></omm>
<omm id="CCSDS_OMM_VERS" version="2.0">
<header><CREATION_DATE/><ORIGINATOR/></header><body><segment><metadata><OBJECT_NAME>ONEWEB-0215</OBJECT_NAME><OBJECT_ID>2021-045AK</OBJECT_ID><CENTER_NAME>EARTH</CENTER_NAME><REF_FRAME>TEME</REF_FRAME><TIME_SYSTEM>UTC</TIME_SYSTEM><MEAN_ELEMENT_THEORY>SGP4</MEAN_ELEMENT_THEORY></metadata><data><meanElements><EPOCH>2024-08-09T11:57:52.463232</EPOCH><MEAN_MOTION>13.15546745</MEAN_MOTION><ECCENTRICITY>.0000867</ECCENTRICITY><INCLINATION>87.9028</INCLINATION><RA_OF_ASC_NODE>33.8228</RA_OF_ASC_NODE><ARG_OF_PERICENTER>97.0702</ARG_OF_PERICENTER><MEAN_ANOMALY>263.0527</MEAN_ANOMALY></meanElements><tleParameters><EPHEMERIS_TYPE>0</EPHEMERIS_TYPE><CLASSIFICATION_TYPE>U</CLASSIFICATION_TYPE><NORAD_CAT_ID>48800</NORAD_CAT_ID><ELEMENT_SET_NO>999</ELEMENT_SET_NO><REV_AT_EPOCH>15532</REV_AT_EPOCH><BSTAR>-.17172E-3</BSTAR><MEAN_MOTION_DOT>-.52E-6</MEAN_MOTION_DOT><MEAN_MOTION_DDOT>0</MEAN_MOTION_DDOT></tleParameters></data></segment></body></omm>
<omm id="CCSDS_OMM_VERS" version="2.0">
<header><CREATION_DATE/><ORIGINATOR/></header><body><segment><metadata><OBJECT_NAME>ONEWEB-0216</OBJECT_NAME><OBJECT_ID>2021-045AL</OBJECT_ID><CENTER_NAME>EARTH</CENTER_NAME><REF_FRAME>TEME</REF_FRAME><TIME_SYSTEM>UTC</TIME_SYSTEM><MEAN_ELEMENT_THEORY>SGP4</MEAN_ELEMENT_THEORY></metadata><data><meanElements><EPOCH>2024-08-09T12:11:34.614528</EPOCH><MEAN_MOTION>13.15547423</MEAN_MOTION><ECCENTRICITY>.0001721</ECCENTRICITY><INCLINATION>87.9027</INCLINATION><RA_OF_ASC_NODE>33.8621</RA_OF_ASC_NODE><ARG_OF_PERICENTER>80.7370</ARG_OF_PERICENTER><MEAN_ANOMALY>279.3955</MEAN_ANOMALY></meanElements><tleParameters><EPHEMERIS_TYPE>0</EPHEMERIS_TYPE><CLASSIFICATION_TYPE>U</CLASSIFICATION_TYPE><NORAD_CAT_ID>48801</NORAD_CAT_ID><ELEMENT_SET_NO>999</ELEMENT_SET_NO><REV_AT_EPOCH>15533</REV_AT_EPOCH><BSTAR>-.78153E-3</BSTAR><MEAN_MOTION_DOT>-.281E-5</MEAN_MOTION_DOT><MEAN_MOTION_DDOT>0</MEAN_MOTION_DDOT></tleParameters></data></segment></body></omm>
<omm id="CCSDS_OMM_VERS" version="2.0">
<header><CREATION_DATE/><ORIGINATOR/></header><body><segment><metadata><OBJECT_NAME>ONEWEB-0239</OBJECT_NAME><OBJECT_ID>2021-045AM</OBJECT_ID><CENTER_NAME>EARTH</CENTER_NAME><REF_FRAME>TEME</REF_FRAME><TIME_SYSTEM>UTC</TIME_SYSTEM><MEAN_ELEMENT_THEORY>SGP4</MEAN_ELEMENT_THEORY></metadata><data><meanElements><EPOCH>2024-08-09T12:18:24.453792</EPOCH><MEAN_MOTION>13.15547353</MEAN_MOTION><ECCENTRICITY>.0000897</ECCENTRICITY><INCLINATION>87.9037</INCLINATION><RA_OF_ASC_NODE>33.8420</RA_OF_ASC_NODE><ARG_OF_PERICENTER>115.6982</ARG_OF_PERICENTER><MEAN_ANOMALY>244.4241</MEAN_ANOMALY></meanElements><tleParameters><EPHEMERIS_TYPE>0</EPHEMERIS_TYPE><CLASSIFICATION_TYPE>U</CLASSIFICATION_TYPE><NORAD_CAT_ID>48802</NORAD_CAT_ID><ELEMENT_SET_NO>999</ELEMENT_SET_NO><REV_AT_EPOCH>15537</REV_AT_EPOCH><BSTAR>-.93942E-3</BSTAR><MEAN_MOTION_DOT>-.341E-5</MEAN_MOTION_DOT><MEAN_MOTION_DDOT>0</MEAN_MOTION_DDOT></tleParameters></data></segment></body></omm>

</ndm>
